ONEWEB-0055             
1 45443U 20020V   21316.87050001  .00000562  00000-0  15502-2 0  9996
2 45443  87.8922 354.5406 0002111  94.8993 265.2376 13.11416451 82774
ONEWEB-0093             
1 45444U 20020W   21316.84581115 -.00000198  00000-0 -59515-3 0  9999
2 45444  87.8915 354.5878 0002094  94.2169 265.9199 13.11415643 82849
ONEWEB-0029             
1 45445U 20020X   21316.86827925  .00000554  00000-0  15258-2 0  9993
2 45445  87.8916 354.5647 0002055 106.2007 253.9348 13.11422302 82828
ONEWEB-0068             
1 45446U 20020Y   21316.83793630 -.00000468  00000-0 -13558-2 0  9993
2 45446  87.8914 354.5878 0002323  95.5151 264.6242 13.11413861 82766
ONEWEB-0046             
1 45447U 20020Z   21316.83455965 -.00000479  00000-0 -13886-2 0  9996
2 45447  87.8915 354.5950 0001729  99.7127 260.4196 13.11412701 82772
ONEWEB-0063             
1 45448U 20020AA  21316.86378514  .00000342  00000-0  93017-3 0  9996
2 45448  87.8909 354.5870 0001587 103.7921 256.3383 13.11421397 82859
ONEWEB-0019             
1 45449U 20020AB  21316.83905458 -.00000423  00000-0 -12298-2 0  9990
2 45449  87.8919 354.5715 0001775  92.9009 267.2322 13.11416302 82690
ONEWEB-0094             
1 45450U 20020AC  21316.81227403  .00000002  00000-0 -28370-4 0  9999
2 45450  87.9088 339.3514 0001965  88.9853 271.1503 13.17646865 85414
ONEWEB-0087             
1 45451U 20020AD  21316.87275353  .00000755  00000-0  20930-2 0  9999
2 45451  87.8920 354.5954 0002262 105.8493 254.2885 13.11414708 82758
ONEWEB-0082             
1 45452U 20020AE  21316.87497351 -.00000424  00000-0 -12335-2 0  9999
2 45452  87.8911 354.5456 0002399  97.9036 262.2364 13.11416036 82848
ONEWEB-0050             
1 45453U 20020AF  21316.92530719  .00000535  00000-0  46384-4 0  9996
2 45453  87.5380 308.9833 0023301 280.4573  79.4031 14.94800615 89926
ONEWEB-0034             
1 45454U 20020AG  21316.81661496 -.00000202  00000-0 -60488-3 0  9995
2 45454  87.8910 354.5808 0001995 102.4806 257.6546 13.11412913 82747
ONEWEB-0060             
1 45455U 20020AH  21316.82557809 -.00000543  00000-0 -15684-2 0  9994
2 45455  87.8914 354.5806 0001825 100.0824 260.0510 13.11410700 82703
ONEWEB-0086             
1 45456U 20020AJ  21316.84358221 -.00000218  00000-0 -65104-3 0  9996
2 45456  87.8915 354.5726 0002131  98.1981 261.9389 13.11422400 82768
ONEWEB-0088             
1 45457U 20020AK  21316.81889425 -.00000250  00000-0 -74198-3 0  9998
2 45457  87.8907 354.6000 0001805 104.9708 255.1619 13.11412484 82690
ONEWEB-0102             
1 47258U 20100A   21316.76406988 -.00000054  00000-0 -18537-3 0  9998
2 47258  87.8845 324.1791 0002111  87.8092 272.3278 13.12442411 44703
ONEWEB-0109             
1 47259U 20100B   21316.77562196  .00000317  00000-0  84579-3 0  9993
2 47259  87.8905 324.0391 0001957  84.8222 275.3129 13.12442611 44536
ONEWEB-0110             
1 47260U 20100C   21316.87497681  .00000484  00000-0  13088-2 0  9993
2 47260  87.8866 324.0970 0002227  83.7468 276.3914 13.12440318 44713
ONEWEB-0111             
1 47261U 20100D   21316.75251472 -.00000266  00000-0 -77464-3 0  9996
2 47261  87.8868 324.1487 0002049  87.7133 272.4230 13.12442277 44539
ONEWEB-0114             
1 47262U 20100E   21316.93735432  .00000684  00000-0  18659-2 0  9992
2 47262  87.8908 323.9717 0001791  73.8036 286.3290 13.12441173 44511
ONEWEB-0117             
1 47263U 20100F   21316.77793450  .00000353  00000-0  94451-3 0  9997
2 47263  87.8820 324.0774 0002010  85.5918 274.5440 13.12441443 44509
ONEWEB-0118             
1 47264U 20100G   21316.73173912  .00000065  00000-0  14663-3 0  9996
2 47264  87.8852 324.1298 0001042  75.6671 284.4573 13.12440875 44692
ONEWEB-0119             
1 47265U 20100H   21316.75945233 -.00000139  00000-0 -42135-3 0  9991
2 47265  87.8843 324.1873 0001981  86.3300 273.8055 13.12442056 44670
ONEWEB-0120             
1 47266U 20100J   21316.94197195  .00000393  00000-0  10557-2 0  9991
2 47266  87.8916 324.0856 0001891  80.7264 279.4078 13.12442191 44722
ONEWEB-0121             
1 47267U 20100K   21316.92578350  .00000284  00000-0  75493-3 0  9996
2 47267  87.8925 324.1459 0002112  92.1508 267.9863 13.12446215 44633
ONEWEB-0122             
1 47268U 20100L   21316.91885309  .00000082  00000-0  19317-3 0  9990
2 47268  87.8834 324.0486 0001941  86.1277 274.0074 13.12440568 44545
ONEWEB-0123             
1 47269U 20100M   21316.76177075 -.00000158  00000-0 -47457-3 0  9990
2 47269  87.8859 324.1585 0001810  86.6067 273.5269 13.12444940 44662
ONEWEB-0124             
1 47270U 20100N   21316.74791543 -.00000391  00000-0 -11237-2 0  9997
2 47270  87.8828 324.0917 0002287  99.3538 260.7849 13.12433609 44540
ONEWEB-0125             
1 47271U 20100P   21316.72711073  .00000019  00000-0  16686-4 0  9996
2 47271  87.8901 324.1837 0001773  77.5095 282.6232 13.12443617 44606
ONEWEB-0126             
1 47272U 20100Q   21316.75135159 -.00000349  00000-0 -10061-2 0  9992
2 47272  87.8859 324.2068 0002008  81.1580 278.9776 13.12444253 44673
ONEWEB-0127             
1 47273U 20100R   21316.94429885  .00000849  00000-0  23235-2 0  9996
2 47273  87.8836 324.0632 0001746  87.5996 272.5333 13.12441412 44722
ONEWEB-0128             
1 47274U 20100S   21316.73634669 -.00000270  00000-0 -78664-3 0  9999
2 47274  87.8856 324.1203 0002330  89.6771 270.4624 13.12444061 44716
ONEWEB-0129             
1 47275U 20100T   21316.71788494  .00000371  00000-0  99459-3 0  9999
2 47275  87.8868 324.0618 0002009  34.8742 325.2518 13.12442681 44641
ONEWEB-0130             
1 47276U 20100U   21316.74327911 -.00000430  00000-0 -12295-2 0  9996
2 47276  87.8890 324.1396 0002069  90.7420 269.3946 13.12444018 44617
ONEWEB-0131             
1 47277U 20100V   21316.74096943 -.00000509  00000-0 -14509-2 0  9992
2 47277  87.8890 324.0880 0002042  93.8686 266.2676 13.12443504 44653
ONEWEB-0132             
1 47278U 20100W   21316.92347753  .00000210  00000-0  54854-3 0  9996
2 47278  87.8851 324.1584 0001810  79.4365 280.6968 13.12441991 44572
ONEWEB-0133             
1 47279U 20100X   21316.93966028  .00000420  00000-0  11324-2 0  9997
2 47279  87.8875 324.0503 0001890  86.2937 273.8408 13.12442963 44739
ONEWEB-0134             
1 47280U 20100Y   21316.75484368 -.00000282  00000-0 -82045-3 0  9998
2 47280  87.8844 324.1135 0002216  87.8442 272.2940 13.12446877 44686
ONEWEB-0135             
1 47281U 20100Z   21316.72479602  .00000136  00000-0  34361-3 0  9995
2 47281  87.8848 324.1085 0001931  83.1830 276.9518 13.12443937 44707
ONEWEB-0136             
1 47282U 20100AA  21316.59311766 -.00000406  00000-0 -11639-2 0  9991
2 47282  87.8872 324.1010 0002721  75.4231 284.7199 13.12440987 44614
ONEWEB-0137             
1 47283U 20100AB  21316.93503104  .00000434  00000-0  11702-2 0  9999
2 47283  87.8830 324.1346 0001683  81.5033 278.6286 13.12442930 44568
ONEWEB-0138             
1 47284U 20100AC  21316.83335181 -.00000699  00000-0 -19778-2 0  9993
2 47284  87.8837 324.1439 0002025  81.0464 279.0893 13.12443165 44631
ONEWEB-0139             
1 47285U 20100AD  21316.72941530 -.00000041  00000-0 -14959-3 0  9991
2 47285  87.8889 324.2054 0002186  83.5187 276.6190 13.12441927 44693
ONEWEB-0140             
1 47286U 20100AE  21316.75020678 -.00000393  00000-0 -11273-2 0  9991
2 47286  87.8866 324.1599 0002100  85.0944 275.0424 13.12445208 44662
ONEWEB-0141             
1 47287U 20100AF  21316.74212903 -.00000418  00000-0 -11960-2 0  9996
2 47287  87.8840 324.1546 0002001  87.2118 272.9239 13.12442827 44646
ONEWEB-0142             
1 47288U 20100AG  21316.76291656 -.00000119  00000-0 -36716-3 0  9996
2 47288  87.8867 324.2331 0001787  76.0052 284.1275 13.12442085 44643
ONEWEB-0143             
1 47289U 20100AH  21316.72019711  .00000309  00000-0  82321-3 0  9995
2 47289  87.8888 324.1194 0001903  87.7693 272.3653 13.12444514 44618
ONEWEB-0144             
1 47290U 20100AJ  21316.92116355  .00001046  00000-0  28720-2 0  9992
2 47290  87.8910 324.0019 0002140  84.8485 275.2888 13.12439375 44567
ONEWEB-0145             
1 47291U 20100AK  21316.73864795 -.00000301  00000-0 -87137-3 0  9993
2 47291  87.8863 324.1411 0001858  85.2309 274.9031 13.12441689 44733
ONEWEB-0146             
1 47292U 20100AL  21316.73403771 -.00000211  00000-0 -62243-3 0  9998
2 47292  87.8850 324.1698 0002252 116.2935 243.8425 13.12443156 44649
ONEWEB-0147             
1 47293U 20100AM  21316.93270744  .00000326  00000-0  87057-3 0  9998
2 47293  87.8868 324.1240 0002482  72.6291 287.5109 13.12444723 44563
ONEWEB-0115             
1 48042U 21025A   21316.89766564 -.00000272  00000-0 -77963-3 0  9990
2 48042  87.8860 293.4849 0002284  90.5673 269.5717 13.13465347 33428
ONEWEB-0152             
1 48043U 21025B   21316.90884700 -.00000004  00000-0 -46455-4 0  9992
2 48043  87.8874 293.4598 0002225  83.1824 276.9558 13.13475372 33374
ONEWEB-0153             
1 48044U 21025C   21316.88646047 -.00000256  00000-0 -73517-3 0  9997
2 48044  87.8969 293.6580 0001780  82.4471 277.6860 13.13466533 33360
ONEWEB-0154             
1 48045U 21025D   21316.88422434  .00000068  00000-0  15177-3 0  9997
2 48045  87.8812 293.4790 0002052  69.0967 291.0382 13.13473196 33321
ONEWEB-0116             
1 48046U 21025E   21316.92678142  .00000344  00000-0  90790-3 0  9993
2 48046  87.8821 293.4715 0001944  96.1757 263.9594 13.13467802 33472
ONEWEB-0150             
1 48047U 21025F   21316.89990550 -.00000237  00000-0 -68305-3 0  9990
2 48047  87.8817 293.5017 0001683  74.8095 285.3220 13.13465552 33364
ONEWEB-0107             
1 48048U 21025G   21316.90214977 -.00000146  00000-0 -43514-3 0  9999
2 48048  87.8843 293.4817 0001780  64.3487 295.7826 13.13464802 33351
ONEWEB-0101             
1 48049U 21025H   21316.94246836  .00000149  00000-0  37270-3 0  9996
2 48049  87.8836 293.5364 0002078  76.1978 283.9382 13.13472387 33329
